{
  "links" : {
    "next" : "https://api.nasa.gov/neo/rest/v1/feed?start_date=2012-12-09&end_date=2012-12-09&detailed=true&api_key=t0TVs3DtDT2H8Oy2Zy8m2eVrNsAVKAexjcZXUckd",
    "prev" : "https://api.nasa.gov/neo/rest/v1/feed?start_date=2012-12-07&end_date=2012-12-07&detailed=true&api_key=t0TVs3DtDT2H8Oy2Zy8m2eVrNsAVKAexjcZXUckd",
    "self" : "https://api.nasa.gov/neo/rest/v1/feed?start_date=2012-12-08&end_date=2012-12-08&detailed=true&api_key=t0TVs3DtDT2H8Oy2Zy8m2eVrNsAVKAexjcZXUckd"
  },
  "element_count" : 9,
  "near_earth_objects" : {
    "2012-12-08" : [ {
      "links" : {
        "self" : "https://api.nasa.gov/neo/rest/v1/neo/3620864?api_key=t0TVs3DtDT2H8Oy2Zy8m2eVrNsAVKAexjcZXUckd"
      },
      "neo_reference_id" : "3620864",
      "name" : "(2012 XB133)",
      "nasa_jpl_url" : "http://ssd.jpl.nasa.gov/sbdb.cgi?sstr=3620864",
      "absolute_magnitude_h" : 25.1,
      "estimated_diameter" : {
        "kilometers" : {
          "estimated_diameter_min" : 0.0253837029,
          "estimated_diameter_max" : 0.0567596853
        },
        "meters" : {
          "estimated_diameter_min" : 25.3837029364,
          "estimated_diameter_max" : 56.7596852866
        },
        "miles" : {
          "estimated_diameter_min" : 0.0157726969,
          "estimated_diameter_max" : 0.0352688224
        },
        "feet" : {
          "estimated_diameter_min" : 83.279867942,
          "estimated_diameter_max" : 186.2194458756
        }
      },
      "is_potentially_hazardous_asteroid" : false,
      "close_approach_data" : [ {
        "close_approach_date" : "2012-12-08",
        "epoch_date_close_approach" : 1354953600000,
        "relative_velocity" : {
          "kilometers_per_second" : "8.3839986099",
          "kilometers_per_hour" : "30182.3949956509",
          "miles_per_hour" : "18754.1664904921"
        },
        "miss_distance" : {
          "astronomical" : "0.0227146456",
          "lunar" : "8.8359966278",
          "kilometers" : "3398062.5",
          "miles" : "2111458.25"
        },
        "orbiting_body" : "Earth"
      } ],
      "orbital_data" : {
        "orbit_id" : "9",
        "orbit_determination_date" : "2017-04-06 08:47:37",
        "orbit_uncertainty" : "7",
        "minimum_orbit_intersection" : ".000636431",
        "jupiter_tisserand_invariant" : "4.200",
        "epoch_osculation" : "2458000.5",
        "eccentricity" : ".4233349124532881",
        "semi_major_axis" : "1.633495958055817",
        "inclination" : "1.156582219432901",
        "ascending_node_longitude" : "69.45483229429864",
        "orbital_period" : "762.5626381596703",
        "perihelion_distance" : ".9419800896594575",
        "perihelion_argument" : "330.4778995288873",
        "aphelion_distance" : "2.325011826452176",
        "perihelion_time" : "2457765.970451880929",
        "mean_anomaly" : "110.7196092462988",
        "mean_motion" : ".4720923659055807",
        "equinox" : "J2000"
      }
    }, {
      "links" : {
        "self" : "https://api.nasa.gov/neo/rest/v1/neo/2002062?api_key=t0TVs3DtDT2H8Oy2Zy8m2eVrNsAVKAexjcZXUckd"
      },
      "neo_reference_id" : "2002062",
      "name" : "2062 Aten (1976 AA)",
      "nasa_jpl_url" : "http://ssd.jpl.nasa.gov/sbdb.cgi?sstr=2002062",
      "absolute_magnitude_h" : 16.8,
      "estimated_diameter" : {
        "kilometers" : {
          "estimated_diameter_min" : 1.1602590821,
          "estimated_diameter_max" : 2.5944181791
        },
        "meters" : {
          "estimated_diameter_min" : 1160.2590820944,
          "estimated_diameter_max" : 2594.4181790745
        },
        "miles" : {
          "estimated_diameter_min" : 0.7209513461,
          "estimated_diameter_max" : 1.6120962183
        },
        "feet" : {
          "estimated_diameter_min" : 3806.6244068985,
          "estimated_diameter_max" : 8511.8709386348
        }
      },
      "is_potentially_hazardous_asteroid" : false,
      "close_approach_data" : [ {
        "close_approach_date" : "2012-12-08",
        "epoch_date_close_approach" : 1354953600000,
        "relative_velocity" : {
          "kilometers_per_second" : "10.1544381469",
          "kilometers_per_hour" : "36555.977328799",
          "miles_per_hour" : "22714.4626907751"
        },
        "miss_distance" : {
          "astronomical" : "0.2976117087",
          "lunar" : "115.7709579468",
          "kilometers" : "44522080",
          "miles" : "27664738"
        },
        "orbiting_body" : "Earth"
      } ],
      "orbital_data" : {
        "orbit_id" : "148",
        "orbit_determination_date" : "2015-02-24 14:25:50",
        "orbit_uncertainty" : "0",
        "minimum_orbit_intersection" : ".113146",
        "jupiter_tisserand_invariant" : "6.184",
        "epoch_osculation" : "2455926.5",
        "eccentricity" : ".1827171340905242",
        "semi_major_axis" : ".9667898316324987",
        "inclination" : "18.93368681084476",
        "ascending_node_longitude" : "108.6003764318441",
        "orbital_period" : "347.2134482250642",
        "perihelion_distance" : ".790140764328748",
        "perihelion_argument" : "148.0354055966093",
        "aphelion_distance" : "1.143438898936249",
        "perihelion_time" : "2455760.350877980336",
        "mean_anomaly" : "172.267762763347",
        "mean_motion" : "1.036826199677172",
        "equinox" : "J2000"
      }
    }, {
      "links" : {
        "self" : "https://api.nasa.gov/neo/rest/v1/neo/2418846?api_key=t0TVs3DtDT2H8Oy2Zy8m2eVrNsAVKAexjcZXUckd"
      },
      "neo_reference_id" : "2418846",
      "name" : "418846 (2008 WJ60)",
      "nasa_jpl_url" : "http://ssd.jpl.nasa.gov/sbdb.cgi?sstr=2418846",
      "absolute_magnitude_h" : 21.3,
      "estimated_diameter" : {
        "kilometers" : {
          "estimated_diameter_min" : 0.1460679643,
          "estimated_diameter_max" : 0.3266178974
        },
        "meters" : {
          "estimated_diameter_min" : 146.0679642714,
          "estimated_diameter_max" : 326.6178974458
        },
        "miles" : {
          "estimated_diameter_min" : 0.090762397,
          "estimated_diameter_max" : 0.2029508896
        },
        "feet" : {
          "estimated_diameter_min" : 479.2256199,
          "estimated_diameter_max" : 1071.581062656
        }
      },
      "is_potentially_hazardous_asteroid" : false,
      "close_approach_data" : [ {
        "close_approach_date" : "2012-12-08",
        "epoch_date_close_approach" : 1354953600000,
        "relative_velocity" : {
          "kilometers_per_second" : "9.1074966262",
          "kilometers_per_hour" : "32786.9878541571",
          "miles_per_hour" : "20372.5592030456"
        },
        "miss_distance" : {
          "astronomical" : "0.1622802682",
          "lunar" : "63.1270217896",
          "kilometers" : "24276782",
          "miles" : "15084893"
        },
        "orbiting_body" : "Earth"
      } ],
      "orbital_data" : {
        "orbit_id" : "29",
        "orbit_determination_date" : "2017-04-06 09:21:13",
        "orbit_uncertainty" : "0",
        "minimum_orbit_intersection" : ".151332",
        "jupiter_tisserand_invariant" : "4.271",
        "epoch_osculation" : "2458000.5",
        "eccentricity" : ".291462635351139",
        "semi_major_axis" : "1.598470544691193",
        "inclination" : "16.69314907086297",
        "ascending_node_longitude" : "259.4497866547777",
        "orbital_period" : "738.1682877582584",
        "perihelion_distance" : "1.132576107204327",
        "perihelion_argument" : "169.9586387960634",
        "aphelion_distance" : "2.064364982178058",
        "perihelion_time" : "2457734.504265967682",
        "mean_anomaly" : "129.724435253705",
        "mean_motion" : ".4876936681922264",
        "equinox" : "J2000"
      }
    } ]
  }
}